ONEWEB-0597             
1 54663U 22166X   26126.57891891 -.00001058  00000+0 -25943-2 0  9996
2 54663  87.9228 252.2694 0002120 101.5925 258.5447 13.21830811166040
ONEWEB-0600             
1 54664U 22166Y   26126.33335050  .00000027  00000+0  34529-4 0  9996
2 54664  87.9232 252.3098 0002067  95.4609 264.6761 13.21824926165984
ONEWEB-0601             
1 54665U 22166Z   26126.32494037  .00000102  00000+0  21544-3 0  9993
2 54665  87.9232 252.3279 0002156 104.4762 255.6611 13.21826109166177
ONEWEB-0602             
1 54666U 22166AA  26126.36614105  .00000093  00000+0  19399-3 0  9992
2 54666  87.9229 252.3259 0002099  94.6414 265.4959 13.21827831166023
ONEWEB-0603             
1 54667U 22166AB  26126.37202049  .00000168  00000+0  37431-3 0  9994
2 54667  87.9245 252.2777 0002077 100.0205 260.1163 13.21827665165957
ONEWEB-0604             
1 54668U 22166AC  26126.58734040  .00000054  00000+0  98109-4 0  9993
2 54668  87.9247 252.2500 0001861  98.7815 261.3529 13.21827743165949
ONEWEB-0605             
1 54669U 22166AD  26126.58061214 -.00000007  00000+0 -47607-4 0  9997
2 54669  87.9234 252.2683 0002273 116.0449 244.0919 13.21827627166014
ONEWEB-0606             
1 54670U 22166AE  26126.37538622  .00000073  00000+0  14474-3 0  9994
2 54670  87.9232 252.3219 0001737  97.8125 262.3206 13.21827706166044
ONEWEB-0607             
1 54671U 22166AF  26126.34176174  .00000057  00000+0  10699-3 0  9999
2 54671  87.9237 252.2967 0002067  98.6544 261.4825 13.21824638166015
ONEWEB-0608             
1 54672U 22166AG  26126.57556902  .00000051  00000+0  91707-4 0  9990
2 54672  87.9243 252.2454 0002362 109.8143 250.3245 13.21824549166050
ONEWEB-0610             
1 54673U 22166AH  26126.32829973 -.00001902  00000+0 -46370-2 0  9997
2 54673  87.9231 252.3131 0002463 106.1250 254.0156 13.21834520165929
ONEWEB-0611             
1 54674U 22166AJ  26126.32156288  .00000027  00000+0  34075-4 0  9996
2 54674  87.9233 252.3108 0001781  99.5124 260.6211 13.21823834165913
ONEWEB-0612             
1 54675U 22166AK  26126.33503180  .00000012  00000+0 -25479-5 0  9999
2 54675  87.9242 252.2988 0002070 103.3258 256.8107 13.21826497165901
ONEWEB-0615             
1 54676U 22166AL  26126.31482703  .00000068  00000+0  13379-3 0  9999
2 54676  87.9232 252.3213 0001781  92.9951 267.1387 13.21825619165915
ONEWEB-0655             
1 54677U 22166AM  26126.36697890  .00000073  00000+0  14490-3 0  9991
2 54677  87.9235 252.3131 0002195  95.9630 264.1755 13.21827887165910
ONEWEB-0659             
1 54678U 22166AN  26126.38380917  .00000406  00000+0  95218-3 0  9990
2 54678  87.9228 252.3094 0001855 101.4715 258.6628 13.21822509166004
