[{"OBJECT_NAME":"ONEWEB-0597","OBJECT_ID":"2022-166X","EPOCH":"2026-05-06T13:53:38.593824","MEAN_MOTION":13.21830811,"ECCENTRICITY":0.000212,"INCLINATION":87.9228,"RA_OF_ASC_NODE":252.2694,"ARG_OF_PERICENTER":101.5925,"MEAN_ANOMALY":258.5447,"EPHEMERIS_TYPE":0,"CLASSIFICATION_TYPE":"U","NORAD_CAT_ID":54663,"ELEMENT_SET_NO":999,"REV_AT_EPOCH":16604,"BSTAR":-0.0025943,"MEAN_MOTION_DOT":-1.058e-05,"MEAN_MOTION_DDOT":0.0},{"OBJECT_NAME":"ONEWEB-0600","OBJECT_ID":"2022-166Y","EPOCH":"2026-05-06T08:00:01.483200","MEAN_MOTION":13.21824926,"ECCENTRICITY":0.0002067,"INCLINATION":87.9232,"RA_OF_ASC_NODE":252.3098,"ARG_OF_PERICENTER":95.4609,"MEAN_ANOMALY":264.6761,"EPHEMERIS_TYPE":0,"CLASSIFICATION_TYPE":"U","NORAD_CAT_ID":54664,"ELEMENT_SET_NO":999,"REV_AT_EPOCH":16598,"BSTAR":3.4529e-05,"MEAN_MOTION_DOT":2.7e-07,"MEAN_MOTION_DDOT":0.0},{"OBJECT_NAME":"ONEWEB-0601","OBJECT_ID":"2022-166Z","EPOCH":"2026-05-06T07:47:54.847968","MEAN_MOTION":13.21826109,"ECCENTRICITY":0.0002156,"INCLINATION":87.9232,"RA_OF_ASC_NODE":252.3279,"ARG_OF_PERICENTER":104.4762,"MEAN_ANOMALY":255.6611,"EPHEMERIS_TYPE":0,"CLASSIFICATION_TYPE":"U","NORAD_CAT_ID":54665,"ELEMENT_SET_NO":999,"REV_AT_EPOCH":16617,"BSTAR":0.00021543999999999998,"MEAN_MOTION_DOT":1.02e-06,"MEAN_MOTION_DDOT":0.0},{"OBJECT_NAME":"ONEWEB-0602","OBJECT_ID":"2022-166AA","EPOCH":"2026-05-06T08:47:14.586720","MEAN_MOTION":13.21827831,"ECCENTRICITY":0.0002099,"INCLINATION":87.9229,"RA_OF_ASC_NODE":252.3259,"ARG_OF_PERICENTER":94.6414,"MEAN_ANOMALY":265.4959,"EPHEMERIS_TYPE":0,"CLASSIFICATION_TYPE":"U","NORAD_CAT_ID":54666,"ELEMENT_SET_NO":999,"REV_AT_EPOCH":16602,"BSTAR":0.00019399,"MEAN_MOTION_DOT":9.3e-07,"MEAN_MOTION_DDOT":0.0},{"OBJECT_NAME":"ONEWEB-0603","OBJECT_ID":"2022-166AB","EPOCH":"2026-05-06T08:55:42.570336","MEAN_MOTION":13.21827665,"ECCENTRICITY":0.0002077,"INCLINATION":87.9245,"RA_OF_ASC_NODE":252.2777,"ARG_OF_PERICENTER":100.0205,"MEAN_ANOMALY":260.1163,"EPHEMERIS_TYPE":0,"CLASSIFICATION_TYPE":"U","NORAD_CAT_ID":54667,"ELEMENT_SET_NO":999,"REV_AT_EPOCH":16595,"BSTAR":0.00037431,"MEAN_MOTION_DOT":1.68e-06,"MEAN_MOTION_DDOT":0.0},{"OBJECT_NAME":"ONEWEB-0604","OBJECT_ID":"2022-166AC","EPOCH":"2026-05-06T14:05:46.210560","MEAN_MOTION":13.21827743,"ECCENTRICITY":0.0001861,"INCLINATION":87.9247,"RA_OF_ASC_NODE":252.25,"ARG_OF_PERICENTER":98.7815,"MEAN_ANOMALY":261.3529,"EPHEMERIS_TYPE":0,"CLASSIFICATION_TYPE":"U","NORAD_CAT_ID":54668,"ELEMENT_SET_NO":999,"REV_AT_EPOCH":16594,"BSTAR":9.8109e-05,"MEAN_MOTION_DOT":5.4e-07,"MEAN_MOTION_DDOT":0.0},{"OBJECT_NAME":"ONEWEB-0605","OBJECT_ID":"2022-166AD","EPOCH":"2026-05-06T13:56:04.888896","MEAN_MOTION":13.21827627,"ECCENTRICITY":0.0002273,"INCLINATION":87.9234,"RA_OF_ASC_NODE":252.2683,"ARG_OF_PERICENTER":116.0449,"MEAN_ANOMALY":244.0919,"EPHEMERIS_TYPE":0,"CLASSIFICATION_TYPE":"U","NORAD_CAT_ID":54669,"ELEMENT_SET_NO":999,"REV_AT_EPOCH":16601,"BSTAR":-4.7607e-05,"MEAN_MOTION_DOT":-7e-08,"MEAN_MOTION_DDOT":0.0},{"OBJECT_NAME":"ONEWEB-0606","OBJECT_ID":"2022-166AE","EPOCH":"2026-05-06T09:00:33.369408","MEAN_MOTION":13.21827706,"ECCENTRICITY":0.0001737,"INCLINATION":87.9232,"RA_OF_ASC_NODE":252.3219,"ARG_OF_PERICENTER":97.8125,"MEAN_ANOMALY":262.3206,"EPHEMERIS_TYPE":0,"CLASSIFICATION_TYPE":"U","NORAD_CAT_ID":54670,"ELEMENT_SET_NO":999,"REV_AT_EPOCH":16604,"BSTAR":0.00014474,"MEAN_MOTION_DOT":7.3e-07,"MEAN_MOTION_DDOT":0.0},{"OBJECT_NAME":"ONEWEB-0607","OBJECT_ID":"2022-166AF","EPOCH":"2026-05-06T08:12:08.214336","MEAN_MOTION":13.21824638,"ECCENTRICITY":0.0002067,"INCLINATION":87.9237,"RA_OF_ASC_NODE":252.2967,"ARG_OF_PERICENTER":98.6544,"MEAN_ANOMALY":261.4825,"EPHEMERIS_TYPE":0,"CLASSIFICATION_TYPE":"U","NORAD_CAT_ID":54671,"ELEMENT_SET_NO":999,"REV_AT_EPOCH":16601,"BSTAR":0.00010699,"MEAN_MOTION_DOT":5.7e-07,"MEAN_MOTION_DDOT":0.0},{"OBJECT_NAME":"ONEWEB-0608","OBJECT_ID":"2022-166AG","EPOCH":"2026-05-06T13:48:49.163328","MEAN_MOTION":13.21824549,"ECCENTRICITY":0.0002362,"INCLINATION":87.9243,"RA_OF_ASC_NODE":252.2454,"ARG_OF_PERICENTER":109.8143,"MEAN_ANOMALY":250.3245,"EPHEMERIS_TYPE":0,"CLASSIFICATION_TYPE":"U","NORAD_CAT_ID":54672,"ELEMENT_SET_NO":999,"REV_AT_EPOCH":16605,"BSTAR":9.170700000000001e-05,"MEAN_MOTION_DOT":5.1e-07,"MEAN_MOTION_DDOT":0.0},{"OBJECT_NAME":"ONEWEB-0610","OBJECT_ID":"2022-166AH","EPOCH":"2026-05-06T07:52:45.096672","MEAN_MOTION":13.2183452,"ECCENTRICITY":0.0002463,"INCLINATION":87.9231,"RA_OF_ASC_NODE":252.3131,"ARG_OF_PERICENTER":106.125,"MEAN_ANOMALY":254.0156,"EPHEMERIS_TYPE":0,"CLASSIFICATION_TYPE":"U","NORAD_CAT_ID":54673,"ELEMENT_SET_NO":999,"REV_AT_EPOCH":16592,"BSTAR":-0.0046370000000000005,"MEAN_MOTION_DOT":-1.902e-05,"MEAN_MOTION_DDOT":0.0},{"OBJECT_NAME":"ONEWEB-0611","OBJECT_ID":"2022-166AJ","EPOCH":"2026-05-06T07:43:03.032832","MEAN_MOTION":13.21823834,"ECCENTRICITY":0.0001781,"INCLINATION":87.9233,"RA_OF_ASC_NODE":252.3108,"ARG_OF_PERICENTER":99.5124,"MEAN_ANOMALY":260.6211,"EPHEMERIS_TYPE":0,"CLASSIFICATION_TYPE":"U","NORAD_CAT_ID":54674,"ELEMENT_SET_NO":999,"REV_AT_EPOCH":16591,"BSTAR":3.4075e-05,"MEAN_MOTION_DOT":2.7e-07,"MEAN_MOTION_DDOT":0.0},{"OBJECT_NAME":"ONEWEB-0612","OBJECT_ID":"2022-166AK","EPOCH":"2026-05-06T08:02:26.747520","MEAN_MOTION":13.21826497,"ECCENTRICITY":0.000207,"INCLINATION":87.9242,"RA_OF_ASC_NODE":252.2988,"ARG_OF_PERICENTER":103.3258,"MEAN_ANOMALY":256.8107,"EPHEMERIS_TYPE":0,"CLASSIFICATION_TYPE":"U","NORAD_CAT_ID":54675,"ELEMENT_SET_NO":999,"REV_AT_EPOCH":16590,"BSTAR":-2.5479e-06,"MEAN_MOTION_DOT":1.2e-07,"MEAN_MOTION_DDOT":0.0},{"OBJECT_NAME":"ONEWEB-0615","OBJECT_ID":"2022-166AL","EPOCH":"2026-05-06T07:33:21.055392","MEAN_MOTION":13.21825619,"ECCENTRICITY":0.0001781,"INCLINATION":87.9232,"RA_OF_ASC_NODE":252.3213,"ARG_OF_PERICENTER":92.9951,"MEAN_ANOMALY":267.1387,"EPHEMERIS_TYPE":0,"CLASSIFICATION_TYPE":"U","NORAD_CAT_ID":54676,"ELEMENT_SET_NO":999,"REV_AT_EPOCH":16591,"BSTAR":0.00013379,"MEAN_MOTION_DOT":6.8e-07,"MEAN_MOTION_DDOT":0.0},{"OBJECT_NAME":"ONEWEB-0655","OBJECT_ID":"2022-166AM","EPOCH":"2026-05-06T08:48:26.976960","MEAN_MOTION":13.21827887,"ECCENTRICITY":0.0002195,"INCLINATION":87.9235,"RA_OF_ASC_NODE":252.3131,"ARG_OF_PERICENTER":95.963,"MEAN_ANOMALY":264.1755,"EPHEMERIS_TYPE":0,"CLASSIFICATION_TYPE":"U","NORAD_CAT_ID":54677,"ELEMENT_SET_NO":999,"REV_AT_EPOCH":16591,"BSTAR":0.0001449,"MEAN_MOTION_DOT":7.3e-07,"MEAN_MOTION_DDOT":0.0},{"OBJECT_NAME":"ONEWEB-0659","OBJECT_ID":"2022-166AN","EPOCH":"2026-05-06T09:12:41.112288","MEAN_MOTION":13.21822509,"ECCENTRICITY":0.0001855,"INCLINATION":87.9228,"RA_OF_ASC_NODE":252.3094,"ARG_OF_PERICENTER":101.4715,"MEAN_ANOMALY":258.6628,"EPHEMERIS_TYPE":0,"CLASSIFICATION_TYPE":"U","NORAD_CAT_ID":54678,"ELEMENT_SET_NO":999,"REV_AT_EPOCH":16600,"BSTAR":0.0009521800000000001,"MEAN_MOTION_DOT":4.06e-06,"MEAN_MOTION_DDOT":0.0}]